{
  "type": "FeatureCollection",
  "features": [
    {
      "type": "Feature",
      "geometry": {
        "type": "Polygon",
        "coordinates": [
          [
            [
              52.17073630430696,
              71.00276323231515
            ],
            [
              52.003682284600714,
              71.07445235733428
            ],
            [
              51.78966015815629,
              71.01838074205209
            ],
            [
              51.95702449803951,
              70.94689425619887
            ],
            [
              52.17073630430696,
              71.00276323231515
            ]
          ]
        ]
      },
      "properties": {
        "region": "barents",
        "nominal_area_km2": 100,
        "full_arctic_complete": false
      }
    },
    {
      "type": "Feature",
      "geometry": {
        "type": "Polygon",
        "coordinates": [
          [
            [
              74.69177710455962,
              73.46837642840717
            ],
            [
              74.60911437711722,
              73.555685504885
            ],
            [
              74.30768027475449,
              73.53142770932834
            ],
            [
              74.39179981125362,
              73.44424274529885
            ],
            [
              74.69177710455962,
              73.46837642840717
            ]
          ]
        ]
      },
      "properties": {
        "region": "kara",
        "nominal_area_km2": 100,
        "full_arctic_complete": false
      }
    },
    {
      "type": "Feature",
      "geometry": {
        "type": "Polygon",
        "coordinates": [
          [
            [
              129.509834132755,
              73.76234381867013
            ],
            [
              129.712414000624,
              73.83206715828352
            ],
            [
              129.46659784871142,
              73.88973895767141
            ],
            [
              129.26435608881513,
              73.81977423830381
            ],
            [
              129.509834132755,
              73.76234381867013
            ]
          ]
        ]
      },
      "properties": {
        "region": "laptev",
        "nominal_area_km2": 100,
        "full_arctic_complete": false
      }
    },
    {
      "type": "Feature",
      "geometry": {
        "type": "Polygon",
        "coordinates": [
          [
            [
              157.53451223691934,
              71.64490990986243
            ],
            [
              157.7944539753366,
              71.67940893134589
            ],
            [
              157.68766147802114,
              71.76341627154541
            ],
            [
              157.42673685491746,
              71.72876447271311
            ],
            [
              157.53451223691934,
              71.64490990986243
            ]
          ]
        ]
      },
      "properties": {
        "region": "east_siberian",
        "nominal_area_km2": 100,
        "full_arctic_complete": false
      }
    },
    {
      "type": "Feature",
      "geometry": {
        "type": "Polygon",
        "coordinates": [
          [
            [
              -176.59679027668585,
              70.71309133410979
            ],
            [
              -176.33000993279816,
              70.7074831950738
            ],
            [
              -176.31282331847262,
              70.79820360826604
            ],
            [
              -176.580846840745,
              70.8038371697037
            ],
            [
              -176.59679027668585,
              70.71309133410979
            ]
          ]
        ]
      },
      "properties": {
        "region": "chukchi",
        "nominal_area_km2": 100,
        "full_arctic_complete": false
      }
    }
  ]
}