{
  "type": "FeatureCollection",
  "features": [
    {
      "type": "Feature",
      "geometry": {
        "type": "Polygon",
        "coordinates": [
          [
            [
              72.20747381946533,
              73.15009063237572
            ],
            [
              72.20750264256995,
              73.14991156077224
            ],
            [
              72.20719393333792,
              73.14990738076466
            ],
            [
              72.20722275899696,
              73.14972830920065
            ],
            [
              72.20753146505278,
              73.14973248916122
            ],
            [
              72.20756028691382,
              73.14955341754268
            ],
            [
              72.20786898994892,
              73.14955759699465
            ],
            [
              72.20789780801212,
              73.1493785253216
            ],
            [
              72.20851520819642,
              73.14938688274678
            ],
            [
              72.20852961381884,
              73.14929734686044
            ],
            [
              72.20883831255605,
              73.14930152485715
            ],
            [
              72.20885271643509,
              73.14921198894547
            ],
            [
              72.2094701111996,
              73.14922034350711
            ],
            [
              72.20949891213967,
              73.14904127158414
            ],
            [
              72.2101163011735,
              73.14904962420549
            ],
            [
              72.21013069823464,
              73.14896008819426
            ],
            [
              72.21074808471369,
              73.1489684389223
            ],
            [
              72.21076247844363,
              73.14887890286222
            ],
            [
              72.21107117032808,
              73.14888307751042
            ],
            [
              72.21109995414636,
              73.14870400533769
            ],
            [
              72.21171733202925,
              73.14871235315542
            ],
            [
              72.21173172052973,
              73.14862281701932
            ],
            [
              72.21204040811605,
              73.14862699021236
            ],
            [
              72.21205479487345,
              73.14853745405092
            ],
            [
              72.21267216733582,
              73.14854579900533
            ],
            [
              72.21270093403362,
              73.14836672658302
            ],
            [
              72.21331830076505,
              73.14837506959732
            ],
            [
              72.21330392066946,
              73.14846460585629
            ],
            [
              72.2136126058557,
              73.14846877669453
            ],
            [
              72.21364136271605,
              73.14828970412778
            ],
            [
              72.2142587272023,
              73.14829804432574
            ],
            [
              72.21421560120639,
              73.1485666533137
            ],
            [
              72.21390691412212,
              73.14856248337519
            ],
            [
              72.21389253689213,
              73.14865201967731
            ],
            [
              72.21420122556432,
              73.14865618963924
            ],
            [
              72.21418684976719,
              73.14874572596294
            ],
            [
              72.21449554018238,
              73.14874989548673
            ],
            [
              72.21448116581814,
              73.14883943183197
            ],
            [
              72.21478985797631,
              73.14884360091763
            ],
            [
              72.214775485045,
              73.1489331372844
            ],
            [
              72.21508417894617,
              73.1489373059319
            ],
            [
              72.21506980744782,
              73.14902684232025
            ],
            [
              72.21537850309198,
              73.14903101052957
            ],
            [
              72.21536413302663,
              73.14912054693946
            ],
            [
              72.2156728304138,
              73.14912471471062
            ],
            [
              72.21565846178144,
              73.1492142511421
            ],
            [
              72.21596716091163,
              73.14921841847506
            ],
            [
              72.21595279371236,
              73.14930795492808
            ],
            [
              72.21626149458555,
              73.14931212182286
            ],
            [
              72.21624712881936,
              73.14940165829739
            ],
            [
              72.21717323713283,
              73.1494141562824
            ],
            [
              72.21715887597594,
              73.14950369282532
            ],
            [
              72.21839369558151,
              73.14952035043642
            ],
            [
              72.21837934062216,
              73.1496098870711
            ],
            [
              72.21930546171659,
              73.14962237550267
            ],
            [
              72.2192911113668,
              73.14971191220569
            ],
            [
              72.22021723861876,
              73.14972439655288
            ],
            [
              72.22020289287867,
              73.1498139333242
            ],
            [
              72.22051160386033,
              73.14981809387342
            ],
            [
              72.2204972595537,
              73.14990763066625
            ],
            [
              72.22142339819153,
              73.14992010961427
            ],
            [
              72.22139471864334,
              73.15009918333462
            ],
            [
              72.2146029977763,
              73.15000757353958
            ],
            [
              72.21458862282942,
              73.15009710988197
            ],
            [
              72.20779694207098,
              73.15000527614437
            ],
            [
              72.20778253202909,
              73.15009481196867
            ],
            [
              72.20747381946533,
              73.15009063237572
            ]
          ]
        ]
      },
      "properties": {
        "class": "ice_candidate",
        "sensor": "S2",
        "area_m2": 44200.0,
        "equivalent_diameter_m": 237.23,
        "effective_resolution_m": 20,
        "confidence": "low",
        "truncated": true,
        "grounding": "unverified",
        "observed_at": "2025-07-05T07:18:58.481000Z",
        "source_id": "S2B_43XDB_20250705_0_L2A",
        "stream": "S2",
        "motion": "unknown",
        "speed_m_s": null,
        "association": "unmatched",
        "track_id": "3d406c03-46f9-5c89-8940-62da5cfd4671",
        "observation_count": 1
      }
    }
  ]
}