{
  "type": "FeatureCollection",
  "features": [
    {
      "type": "Feature",
      "geometry": {
        "type": "Polygon",
        "coordinates": [
          [
            [
              72.20716510705702,
              73.15008645232116
            ],
            [
              72.20723717159328,
              73.14963877341582
            ],
            [
              72.20754587606102,
              73.1496429533529
            ],
            [
              72.20757469761116,
              73.14946388173058
            ],
            [
              72.20788339905823,
              73.14946806115907
            ],
            [
              72.20789780801212,
              73.1493785253216
            ],
            [
              72.20820650802656,
              73.149382704265
            ],
            [
              72.20822091523702,
              73.14929316840214
            ],
            [
              72.20852961381884,
              73.14929734686044
            ],
            [
              72.2085440192859,
              73.14920781097224
            ],
            [
              72.20916141373968,
              73.14921616645708
            ],
            [
              72.20917581587535,
              73.14912663052003
            ],
            [
              72.20948451174729,
              73.14913080754657
            ],
            [
              72.20949891213967,
              73.14904127158414
            ],
            [
              72.2101163011735,
              73.14904962420549
            ],
            [
              72.21013069823464,
              73.14896008819426
            ],
            [
              72.21043939139652,
              73.14896426378907
            ],
            [
              72.21045378671441,
              73.14887472775247
            ],
            [
              72.21076247844363,
              73.14887890286222
            ],
            [
              72.21077687201831,
              73.14878936680029
            ],
            [
              72.21108556231485,
              73.148793541425
            ],
            [
              72.21109995414636,
              73.14870400533769
            ],
            [
              72.2114086430102,
              73.14870817947735
            ],
            [
              72.21142303309858,
              73.14861864336471
            ],
            [
              72.21204040811605,
              73.14862699021236
            ],
            [
              72.21205479487345,
              73.14853745405092
            ],
            [
              72.21236348102707,
              73.14854162675891
            ],
            [
              72.21237786604141,
              73.14845209057214
            ],
            [
              72.21268655076229,
              73.14845626279511
            ],
            [
              72.21270093403362,
              73.14836672658302
            ],
            [
              72.21331830076505,
              73.14837506959732
            ],
            [
              72.21330392066946,
              73.14846460585629
            ],
            [
              72.2136126058557,
              73.14846877669453
            ],
            [
              72.21365574091361,
              73.14820016784158
            ],
            [
              72.21396442149137,
              73.1482043381479
            ],
            [
              72.21395004488164,
              73.14829387445754
            ],
            [
              72.2142587272023,
              73.14829804432574
            ],
            [
              72.21424435202537,
              73.14838758065693
            ],
            [
              72.21455303608894,
              73.148391750087
            ],
            [
              72.21452428844574,
              73.14857082279062
            ],
            [
              72.21421560120639,
              73.1485666533137
            ],
            [
              72.21418684976719,
              73.14874572596294
            ],
            [
              72.2148042307526,
              73.14875406454895
            ],
            [
              72.21478985797631,
              73.14884360091763
            ],
            [
              72.21509855028951,
              73.14884776954167
            ],
            [
              72.21508417894617,
              73.1489373059319
            ],
            [
              72.21539287300234,
              73.14894147411778
            ],
            [
              72.21537850309198,
              73.14903101052957
            ],
            [
              72.21568719889115,
              73.1490351782773
            ],
            [
              72.2156728304138,
              73.14912471471062
            ],
            [
              72.21598152795595,
              73.14912888202016
            ],
            [
              72.21596716091163,
              73.14921841847506
            ],
            [
              72.21627586019677,
              73.14922258534642
            ],
            [
              72.21626149458555,
              73.14931212182286
            ],
            [
              72.2165701956137,
              73.14931628825605
            ],
            [
              72.21655583143558,
              73.149405824754
            ],
            [
              72.2174819402138,
              73.14941832135418
            ],
            [
              72.217467580645,
              73.14950785792053
            ],
            [
              72.21901110631339,
              73.14952867647229
            ],
            [
              72.2189967545303,
              73.14961821315377
            ],
            [
              72.21992287655348,
              73.14963069881564
            ],
            [
              72.21990852938,
              73.14972023556544
            ],
            [
              72.22052594801225,
              73.14972855707869
            ],
            [
              72.22051160386033,
              73.14981809387342
            ],
            [
              72.2211290262878,
              73.14982641358695
            ],
            [
              72.22111468515754,
              73.14991595042656
            ],
            [
              72.22142339819153,
              73.14992010961427
            ],
            [
              72.22139471864334,
              73.15009918333462
            ],
            [
              72.2146029977763,
              73.15000757353958
            ],
            [
              72.21458862282942,
              73.15009710988197
            ],
            [
              72.20779694207098,
              73.15000527614437
            ],
            [
              72.20778253202909,
              73.15009481196867
            ],
            [
              72.20716510705702,
              73.15008645232116
            ]
          ]
        ]
      },
      "properties": {
        "class": "ice_candidate",
        "sensor": "S2",
        "area_m2": 47200.0,
        "equivalent_diameter_m": 245.15,
        "effective_resolution_m": 20,
        "confidence": "low",
        "truncated": true,
        "grounding": "unverified",
        "observed_at": "2025-07-05T07:18:58.481000Z",
        "source_id": "S2B_T43XDB_20250705T071621_L2A",
        "stream": "S2",
        "motion": "unknown",
        "speed_m_s": null,
        "association": "unmatched",
        "track_id": "8ceeeec9-3acb-582e-a493-abc1029a74a3",
        "observation_count": 1
      }
    }
  ]
}