{"type":"FeatureCollection","features":[{"type":"Feature","geometry":{"type":"MultiPolygon","coordinates":[[[[73.86453466220452,73.35095242874978],[73.86423756491826,73.35092726144491],[73.86440947017861,73.35075327909036],[73.86411237660693,73.35072811158855],[73.8641983293116,73.35064112046655],[73.86449542147173,73.35066628784087],[73.86466732138395,73.35049230519743],[73.86555859474304,73.3505678038438],[73.86564453912749,73.3504808120674],[73.86623872300018,73.35053114198365],[73.86606683898634,73.3507051259982],[73.8663639350828,73.35073029053339],[73.8662779931506,73.35081728259594],[73.86598089564251,73.35079211793331],[73.86580900628097,73.35096610165904],[73.86551190684092,73.35094093628948],[73.86559785337899,73.35085394457816],[73.8653007562419,73.35082877888412],[73.8652148082922,73.35091577046796],[73.86491771063481,73.35089060419449],[73.86500365999612,73.35080361273816],[73.86470656464171,73.35077844614023],[73.86453466220452,73.35095242874978]]]]},"properties":{"id":"c1c86e71cffb90ef","region":"kara","class":"unclassified_radar_target","ice_identity":"unverified","grounding":"unverified","confidence":"low","observed_at":"2026-02-17T01:53:12.036633Z","source_id":"S1C_IW_GRDH_1SDV_20260217T015257_20260217T015326_006389_00CDAC","source_level":"L1","radar_area_m2":2300.0,"radar_equivalent_diameter_m":54.12,"physical_floe_diameter_m":null,"longitude":73.8652716,"latitude":73.3507095,"native_spacing_m":10,"effective_resolution_m":"20 x 22","co_contrast_max_db":10.16,"cross_contrast_max_db":10.63,"co_snr_median_db":19.95,"cross_snr_median_db":13.66,"review_status":"unreviewed","possible_confusions":"ridge, ship, fast ice, unresolved land, speckle","stream":"kara:sentinel-1c:93:descending:vv,vh","frame_id":"S1C_IW_GRDH_1SDV_20260217T015257_20260217T015326_006389_00CDAC","source_ids":["S1C_IW_GRDH_1SDV_20260217T015257_20260217T015326_006389_00CDAC"],"multi_scene_boundary":false,"source_attribution":"majority of object pixels; all intersecting input scenes retained","source_url":"https://sentinel-s1-l1c.s3.eu-central-1.amazonaws.com/GRD/2026/2/17/IW/DV/S1C_IW_GRDH_1SDV_20260217T015257_20260217T015326_006389_00CDAC_1141/annotation/iw-vv.xml","repeat_track_id":"1c8ccd10447fa9bc","repeat_observations":4,"repeat_span_days":72.0,"repeat_excursion_m":45.8,"persistent_location_candidate":true,"class_name":"persistent_radar_target","interpretation":"Repeat signal near a fixed location; fast ice and association errors not excluded","confirmed_stamukha":false,"observation_ids":["1c8ccd10447fa9bc","c5d8ee3083a6d8de","ed7f38a78528f76a","c1c86e71cffb90ef"]}},{"type":"Feature","geometry":{"type":"MultiPolygon","coordinates":[[[[73.87834408221173,73.35881447277367],[73.87804682491128,73.35878932670745],[73.87813274664575,73.35870233043003],[73.87783549165019,73.35867718403905],[73.87792141390645,73.35859018784099],[73.87732690941661,73.35853989395736],[73.8774128336079,73.3584528979661],[73.87771008399378,73.35847804500656],[73.87788192687523,73.35830405262487],[73.8787736749022,73.3583794902683],[73.87860184050051,73.35855348341472],[73.87889909445244,73.35857862864638],[73.87881317732769,73.35866562527488],[73.87911043358444,73.35869077018178],[73.87902451698157,73.35877776688966],[73.87843000253284,73.3587274763688],[73.87834408221173,73.35881447277367]]]]},"properties":{"id":"03b1630b9ce488b7","region":"kara","class":"unclassified_radar_target","ice_identity":"unverified","grounding":"unverified","confidence":"low","observed_at":"2026-02-17T01:53:12.036633Z","source_id":"S1C_IW_GRDH_1SDV_20260217T015257_20260217T015326_006389_00CDAC","source_level":"L1","radar_area_m2":1600.0,"radar_equivalent_diameter_m":45.14,"physical_floe_diameter_m":null,"longitude":73.8782592,"latitude":73.358554,"native_spacing_m":10,"effective_resolution_m":"20 x 22","co_contrast_max_db":10.24,"cross_contrast_max_db":12.76,"co_snr_median_db":20.1,"cross_snr_median_db":15.52,"review_status":"unreviewed","possible_confusions":"ridge, ship, fast ice, unresolved land, speckle","stream":"kara:sentinel-1c:93:descending:vv,vh","frame_id":"S1C_IW_GRDH_1SDV_20260217T015257_20260217T015326_006389_00CDAC","source_ids":["S1C_IW_GRDH_1SDV_20260217T015257_20260217T015326_006389_00CDAC"],"multi_scene_boundary":false,"source_attribution":"majority of object pixels; all intersecting input scenes retained","source_url":"https://sentinel-s1-l1c.s3.eu-central-1.amazonaws.com/GRD/2026/2/17/IW/DV/S1C_IW_GRDH_1SDV_20260217T015257_20260217T015326_006389_00CDAC_1141/annotation/iw-vv.xml","repeat_track_id":"3a1303d3c6c8befc","repeat_observations":3,"repeat_span_days":48.0,"repeat_excursion_m":14.8,"persistent_location_candidate":true,"class_name":"persistent_radar_target","interpretation":"Repeat signal near a fixed location; fast ice and association errors not excluded","confirmed_stamukha":false,"observation_ids":["3a1303d3c6c8befc","05dc65371e9883d6","03b1630b9ce488b7"]}},{"type":"Feature","geometry":{"type":"MultiPolygon","coordinates":[[[[73.9086922455905,73.34893786369396],[73.90839511782848,73.34891276337079],[73.90882367787938,73.34847770906897],[73.90912079857837,73.3485028087563],[73.9090350897587,73.34858981983972],[73.9093322127592,73.34861491920215],[73.9092465044632,73.34870193036475],[73.90954362976525,73.34872702940226],[73.90945792199295,73.3488140406441],[73.90916079527825,73.34878894147947],[73.90907508520438,73.34887595254621],[73.90877795796601,73.3488508528023],[73.9086922455905,73.34893786369396]]]]},"properties":{"id":"91f9c58e1a637f01","region":"kara","class":"unclassified_radar_target","ice_identity":"unverified","grounding":"unverified","confidence":"low","observed_at":"2026-02-17T01:53:12.036633Z","source_id":"S1C_IW_GRDH_1SDV_20260217T015257_20260217T015326_006389_00CDAC","source_level":"L1","radar_area_m2":900.0,"radar_equivalent_diameter_m":33.85,"physical_floe_diameter_m":null,"longitude":73.908923,"latitude":73.3487217,"native_spacing_m":10,"effective_resolution_m":"20 x 22","co_contrast_max_db":9.37,"cross_contrast_max_db":11.91,"co_snr_median_db":19.8,"cross_snr_median_db":11.68,"review_status":"unreviewed","possible_confusions":"ridge, ship, fast ice, unresolved land, speckle","stream":"kara:sentinel-1c:93:descending:vv,vh","frame_id":"S1C_IW_GRDH_1SDV_20260217T015257_20260217T015326_006389_00CDAC","source_ids":["S1C_IW_GRDH_1SDV_20260217T015257_20260217T015326_006389_00CDAC"],"multi_scene_boundary":false,"source_attribution":"majority of object pixels; all intersecting input scenes retained","source_url":"https://sentinel-s1-l1c.s3.eu-central-1.amazonaws.com/GRD/2026/2/17/IW/DV/S1C_IW_GRDH_1SDV_20260217T015257_20260217T015326_006389_00CDAC_1141/annotation/iw-vv.xml","repeat_track_id":"83006852954a27af","repeat_observations":3,"repeat_span_days":48.0,"repeat_excursion_m":55.7,"persistent_location_candidate":true,"class_name":"persistent_radar_target","interpretation":"Repeat signal near a fixed location; fast ice and association errors not excluded","confirmed_stamukha":false,"observation_ids":["83006852954a27af","52c7a92c7b0c93f3","91f9c58e1a637f01"]}},{"type":"Feature","geometry":{"type":"MultiPolygon","coordinates":[[[[73.87419344483557,73.3258463087337],[73.87330344406213,73.32577084685792],[73.87381809540453,73.32524885728513],[73.87352143870227,73.32522370318726],[73.87343566429153,73.32531070144233],[73.87313900706991,73.32528554676594],[73.8733105578183,73.3251115504622],[73.87301390430001,73.32508639558895],[73.87309967974942,73.3249993974922],[73.87280302852686,73.32497424229489],[73.87297457957605,73.32480024621165],[73.87238128542556,73.32474993497205],[73.87246706243278,73.32466293711278],[73.87187377465001,73.32461262432246],[73.87204533162952,73.32443862896866],[73.87234197226198,73.32446378533498],[73.87242774801204,73.32437678745879],[73.87213110878697,73.32435163121964],[73.87238843493026,73.32409063768424],[73.87298170582432,73.32414094894779],[73.8730674766144,73.32405395075207],[73.87366074824618,73.32410425995606],[73.87374651533342,73.3240172614578],[73.87404315107408,73.32404241525566],[73.87395738539422,73.32412941388111],[73.87425402343032,73.32415456735491],[73.8741682582698,73.32424156605951],[73.87476153982105,73.32429187190765],[73.87467577658735,73.3243788708186],[73.87437913396025,73.324353717993],[73.87429336843101,73.32444071672869],[73.87488665738825,73.32449102218308],[73.87480089378589,73.32457802112518],[73.8750975410041,73.32460317330263],[73.87501177792117,73.32469017232388],[73.87471512929545,73.32466502001921],[73.87462936391691,73.32475201886517],[73.87492601395016,73.32477717129706],[73.87475448334386,73.32495116909924],[73.87505113708032,73.32497632133426],[73.87496537185257,73.32506332029047],[73.87466871670853,73.32503816792823],[73.87458294918505,73.32512516670917],[73.87487960573668,73.32515031919864],[73.87479383873266,73.32523731805873],[73.87449718077345,73.32521216544207],[73.87441141147366,73.32529916412686],[73.8747080708405,73.32532431687075],[73.87436499039005,73.3256723116383],[73.87406832539266,73.32564715838548],[73.87398255165186,73.32573415683],[73.87427921805693,73.32575931021002],[73.87419344483557,73.3258463087337]]]]},"properties":{"id":"0a28ac4d5f1328d2","region":"kara","class":"unclassified_radar_target","ice_identity":"unverified","grounding":"unverified","confidence":"low","observed_at":"2026-02-17T01:53:12.036633Z","source_id":"S1C_IW_GRDH_1SDV_20260217T015257_20260217T015326_006389_00CDAC","source_level":"L1","radar_area_m2":10600.0,"radar_equivalent_diameter_m":116.17,"physical_floe_diameter_m":null,"longitude":73.8736626,"latitude":73.3247883,"native_spacing_m":10,"effective_resolution_m":"20 x 22","co_contrast_max_db":13.6,"cross_contrast_max_db":14.38,"co_snr_median_db":26.36,"cross_snr_median_db":19.34,"review_status":"unreviewed","possible_confusions":"ridge, ship, fast ice, unresolved land, speckle","stream":"kara:sentinel-1c:93:descending:vv,vh","frame_id":"S1C_IW_GRDH_1SDV_20260217T015257_20260217T015326_006389_00CDAC","source_ids":["S1C_IW_GRDH_1SDV_20260217T015257_20260217T015326_006389_00CDAC"],"multi_scene_boundary":false,"source_attribution":"majority of object pixels; all intersecting input scenes retained","source_url":"https://sentinel-s1-l1c.s3.eu-central-1.amazonaws.com/GRD/2026/2/17/IW/DV/S1C_IW_GRDH_1SDV_20260217T015257_20260217T015326_006389_00CDAC_1141/annotation/iw-vv.xml","repeat_track_id":"478b62b8765996d2","repeat_observations":3,"repeat_span_days":48.0,"repeat_excursion_m":8.0,"persistent_location_candidate":true,"class_name":"persistent_radar_target","interpretation":"Repeat signal near a fixed location; fast ice and association errors not excluded","confirmed_stamukha":false,"observation_ids":["478b62b8765996d2","d25829669d4fa0f2","0a28ac4d5f1328d2"]}},{"type":"Feature","geometry":{"type":"MultiPolygon","coordinates":[[[[73.89316136419693,73.32519116074246],[73.89256799583573,73.32514091083611],[73.89265367031585,73.32505390416601],[73.89235698887428,73.32502877866283],[73.89244266387527,73.32494177207182],[73.89214598472905,73.32491664624435],[73.89223166025089,73.32482963973244],[73.89341837652671,73.3249301398256],[73.89350404552887,73.32484313275734],[73.89380072540773,73.32486825652508],[73.8937150578137,73.3249552637204],[73.89460510699776,73.3250306326964],[73.8944337775972,73.32520464770565],[73.89324703586075,73.32510415381815],[73.89316136419693,73.32519116074246]]]]},"properties":{"id":"10149dbfd14491eb","region":"kara","class":"unclassified_radar_target","ice_identity":"unverified","grounding":"unverified","confidence":"low","observed_at":"2026-02-17T01:53:12.036633Z","source_id":"S1C_IW_GRDH_1SDV_20260217T015257_20260217T015326_006389_00CDAC","source_level":"L1","radar_area_m2":1800.0,"radar_equivalent_diameter_m":47.87,"physical_floe_diameter_m":null,"longitude":73.8933609,"latitude":73.3250248,"native_spacing_m":10,"effective_resolution_m":"20 x 22","co_contrast_max_db":10.74,"cross_contrast_max_db":8.83,"co_snr_median_db":21.45,"cross_snr_median_db":13.13,"review_status":"unreviewed","possible_confusions":"ridge, ship, fast ice, unresolved land, speckle","stream":"kara:sentinel-1c:93:descending:vv,vh","frame_id":"S1C_IW_GRDH_1SDV_20260217T015257_20260217T015326_006389_00CDAC","source_ids":["S1C_IW_GRDH_1SDV_20260217T015257_20260217T015326_006389_00CDAC"],"multi_scene_boundary":false,"source_attribution":"majority of object pixels; all intersecting input scenes retained","source_url":"https://sentinel-s1-l1c.s3.eu-central-1.amazonaws.com/GRD/2026/2/17/IW/DV/S1C_IW_GRDH_1SDV_20260217T015257_20260217T015326_006389_00CDAC_1141/annotation/iw-vv.xml","repeat_track_id":"aefe1f969ccc652e","repeat_observations":3,"repeat_span_days":48.0,"repeat_excursion_m":65.8,"persistent_location_candidate":true,"class_name":"persistent_radar_target","interpretation":"Repeat signal near a fixed location; fast ice and association errors not excluded","confirmed_stamukha":false,"observation_ids":["aefe1f969ccc652e","a0258676bb389481","10149dbfd14491eb"]}},{"type":"Feature","geometry":{"type":"MultiPolygon","coordinates":[[[[73.92190011420017,73.32243874662265],[73.92160343523864,73.32241366544478],[73.9216889454811,73.32232664572682],[73.92109559303185,73.32227648227045],[73.92126661649435,73.32210244319845],[73.92215663804518,73.3221776869446],[73.92207113098237,73.32226470688512],[73.92236780801224,73.32228978735779],[73.92228230147249,73.32237680737735],[73.92198562303403,73.3223517267778],[73.92190011420017,73.32243874662265]]]]},"properties":{"id":"7232b4ef5f5d9f93","region":"kara","class":"unclassified_radar_target","ice_identity":"unverified","grounding":"unverified","confidence":"low","observed_at":"2026-02-17T01:53:12.036633Z","source_id":"S1C_IW_GRDH_1SDV_20260217T015257_20260217T015326_006389_00CDAC","source_level":"L1","radar_area_m2":800.0,"radar_equivalent_diameter_m":31.92,"physical_floe_diameter_m":null,"longitude":73.921716,"latitude":73.3222582,"native_spacing_m":10,"effective_resolution_m":"20 x 22","co_contrast_max_db":9.03,"cross_contrast_max_db":8.73,"co_snr_median_db":21.67,"cross_snr_median_db":14.24,"review_status":"unreviewed","possible_confusions":"ridge, ship, fast ice, unresolved land, speckle","stream":"kara:sentinel-1c:93:descending:vv,vh","frame_id":"S1C_IW_GRDH_1SDV_20260217T015257_20260217T015326_006389_00CDAC","source_ids":["S1C_IW_GRDH_1SDV_20260217T015257_20260217T015326_006389_00CDAC"],"multi_scene_boundary":false,"source_attribution":"majority of object pixels; all intersecting input scenes retained","source_url":"https://sentinel-s1-l1c.s3.eu-central-1.amazonaws.com/GRD/2026/2/17/IW/DV/S1C_IW_GRDH_1SDV_20260217T015257_20260217T015326_006389_00CDAC_1141/annotation/iw-vv.xml","repeat_track_id":"2f9cc8a1eed5ddba","repeat_observations":3,"repeat_span_days":48.0,"repeat_excursion_m":70.1,"persistent_location_candidate":true,"class_name":"persistent_radar_target","interpretation":"Repeat signal near a fixed location; fast ice and association errors not excluded","confirmed_stamukha":false,"observation_ids":["2f9cc8a1eed5ddba","4f5ea5c4c0c42a0c","7232b4ef5f5d9f93"]}},{"type":"Feature","geometry":{"type":"MultiPolygon","coordinates":[[[[73.91143131851578,73.32164765215013],[73.91113466914753,73.32162255504558],[73.91122022956807,73.32153553981708],[73.91062693630576,73.3214853445077],[73.91088362070016,73.32122429929646],[73.91118026266408,73.32124939679603],[73.91109470349332,73.32133641204129],[73.91168799289515,73.32138660594015],[73.91160243565464,73.32147362139138],[73.91219573141645,73.32152381373855],[73.91202461991016,73.32169784500505],[73.91172796876998,73.3216727488033],[73.91181352637426,73.32158573332093],[73.91151687752819,73.32156063679471],[73.91143131851578,73.32164765215013]]]]},"properties":{"id":"cee35f5bc8231263","region":"kara","class":"unclassified_radar_target","ice_identity":"unverified","grounding":"unverified","confidence":"low","observed_at":"2026-02-17T01:53:12.036633Z","source_id":"S1C_IW_GRDH_1SDV_20260217T015257_20260217T015326_006389_00CDAC","source_level":"L1","radar_area_m2":1100.0,"radar_equivalent_diameter_m":37.42,"physical_floe_diameter_m":null,"longitude":73.9113538,"latitude":73.321474,"native_spacing_m":10,"effective_resolution_m":"20 x 22","co_contrast_max_db":10.38,"cross_contrast_max_db":8.47,"co_snr_median_db":22.46,"cross_snr_median_db":13.76,"review_status":"unreviewed","possible_confusions":"ridge, ship, fast ice, unresolved land, speckle","stream":"kara:sentinel-1c:93:descending:vv,vh","frame_id":"S1C_IW_GRDH_1SDV_20260217T015257_20260217T015326_006389_00CDAC","source_ids":["S1C_IW_GRDH_1SDV_20260217T015257_20260217T015326_006389_00CDAC"],"multi_scene_boundary":false,"source_attribution":"majority of object pixels; all intersecting input scenes retained","source_url":"https://sentinel-s1-l1c.s3.eu-central-1.amazonaws.com/GRD/2026/2/17/IW/DV/S1C_IW_GRDH_1SDV_20260217T015257_20260217T015326_006389_00CDAC_1141/annotation/iw-vv.xml","repeat_track_id":"77aca994dc594c3b","repeat_observations":3,"repeat_span_days":48.0,"repeat_excursion_m":31.2,"persistent_location_candidate":true,"class_name":"persistent_radar_target","interpretation":"Repeat signal near a fixed location; fast ice and association errors not excluded","confirmed_stamukha":false,"observation_ids":["77aca994dc594c3b","0ab3ad4a35ab8fc5","cee35f5bc8231263"]}},{"type":"Feature","geometry":{"type":"MultiPolygon","coordinates":[[[[73.90809414363957,73.3201399695845],[73.90779752586448,73.32011486735979],[73.9078830958865,73.32002785341271],[73.90758648040519,73.32000275086361],[73.90767205094896,73.31991573699558],[73.90737543776136,73.31989063412209],[73.9074610088269,73.3198036203331],[73.90805423327264,73.31985382537485],[73.90822536711498,73.31967979714537],[73.90852197785131,73.31970489873537],[73.90843641278084,73.31979191300098],[73.90873302581082,73.31981701426663],[73.9084763295071,73.32007805715693],[73.90817971225383,73.32005295551049],[73.90809414363957,73.3201399695845]]]]},"properties":{"id":"dc5fb545d0445636","region":"kara","class":"unclassified_radar_target","ice_identity":"unverified","grounding":"unverified","confidence":"low","observed_at":"2026-02-17T01:53:12.036633Z","source_id":"S1C_IW_GRDH_1SDV_20260217T015257_20260217T015326_006389_00CDAC","source_level":"L1","radar_area_m2":1100.0,"radar_equivalent_diameter_m":37.42,"physical_floe_diameter_m":null,"longitude":73.908125,"latitude":73.3199155,"native_spacing_m":10,"effective_resolution_m":"20 x 22","co_contrast_max_db":7.96,"cross_contrast_max_db":8.88,"co_snr_median_db":20.89,"cross_snr_median_db":15.12,"review_status":"unreviewed","possible_confusions":"ridge, ship, fast ice, unresolved land, speckle","stream":"kara:sentinel-1c:93:descending:vv,vh","frame_id":"S1C_IW_GRDH_1SDV_20260217T015257_20260217T015326_006389_00CDAC","source_ids":["S1C_IW_GRDH_1SDV_20260217T015257_20260217T015326_006389_00CDAC"],"multi_scene_boundary":false,"source_attribution":"majority of object pixels; all intersecting input scenes retained","source_url":"https://sentinel-s1-l1c.s3.eu-central-1.amazonaws.com/GRD/2026/2/17/IW/DV/S1C_IW_GRDH_1SDV_20260217T015257_20260217T015326_006389_00CDAC_1141/annotation/iw-vv.xml","repeat_track_id":"ac161f846fba6542","repeat_observations":3,"repeat_span_days":48.0,"repeat_excursion_m":15.9,"persistent_location_candidate":true,"class_name":"persistent_radar_target","interpretation":"Repeat signal near a fixed location; fast ice and association errors not excluded","confirmed_stamukha":false,"observation_ids":["ac161f846fba6542","4c2539805954724c","dc5fb545d0445636"]}},{"type":"Feature","geometry":{"type":"MultiPolygon","coordinates":[[[[73.907649888185,73.31275038762816],[73.90646394644659,73.31264997230303],[73.90654948538253,73.31256295804641],[73.90625300356753,73.31253785321421],[73.90633854302467,73.3124508390366],[73.90604206350139,73.31242573388016],[73.9059565226378,73.31251274793087],[73.90566004259335,73.31248764219642],[73.9058311262481,73.31231361430086],[73.90642408159655,73.31236382481109],[73.9065096192832,73.31227681053765],[73.90680609687885,73.31230191498915],[73.90663502343321,73.31247594374192],[73.90693150472698,73.31250104799608],[73.90701704048595,73.31241403351679],[73.90761000291621,73.31246424041797],[73.90743893613897,73.31263826983628],[73.90773542149492,73.31266337286397],[73.907649888185,73.31275038762816]]]]},"properties":{"id":"e18fbdc17b488b4e","region":"kara","class":"unclassified_radar_target","ice_identity":"unverified","grounding":"unverified","confidence":"low","observed_at":"2026-02-17T01:53:12.036633Z","source_id":"S1C_IW_GRDH_1SDV_20260217T015257_20260217T015326_006389_00CDAC","source_level":"L1","radar_area_m2":1500.0,"radar_equivalent_diameter_m":43.7,"physical_floe_diameter_m":null,"longitude":73.9067774,"latitude":73.3125163,"native_spacing_m":10,"effective_resolution_m":"20 x 22","co_contrast_max_db":9.63,"cross_contrast_max_db":10.07,"co_snr_median_db":22.79,"cross_snr_median_db":16.57,"review_status":"unreviewed","possible_confusions":"ridge, ship, fast ice, unresolved land, speckle","stream":"kara:sentinel-1c:93:descending:vv,vh","frame_id":"S1C_IW_GRDH_1SDV_20260217T015257_20260217T015326_006389_00CDAC","source_ids":["S1C_IW_GRDH_1SDV_20260217T015257_20260217T015326_006389_00CDAC"],"multi_scene_boundary":false,"source_attribution":"majority of object pixels; all intersecting input scenes retained","source_url":"https://sentinel-s1-l1c.s3.eu-central-1.amazonaws.com/GRD/2026/2/17/IW/DV/S1C_IW_GRDH_1SDV_20260217T015257_20260217T015326_006389_00CDAC_1141/annotation/iw-vv.xml","repeat_track_id":"5c962c84d79766b6","repeat_observations":3,"repeat_span_days":48.0,"repeat_excursion_m":66.6,"persistent_location_candidate":true,"class_name":"persistent_radar_target","interpretation":"Repeat signal near a fixed location; fast ice and association errors not excluded","confirmed_stamukha":false,"observation_ids":["5c962c84d79766b6","4fced6c6df2c98b6","e18fbdc17b488b4e"]}},{"type":"Feature","geometry":{"type":"MultiPolygon","coordinates":[[[[129.62809824329358,73.8811856673125],[129.627606267965,73.88130110084404],[129.62719887174836,73.88116170279095],[129.62695288212424,73.88121941861634],[129.62654549356773,73.88108001923175],[129.62679148252792,73.88102230389124],[129.62658779054127,73.88095260412395],[129.62683377742047,73.88089488872221],[129.62703746973907,73.88096458824708],[129.6272834552012,73.88090687229924],[129.62748714960074,73.88097657137003],[129.6272411638067,73.88103428756031],[129.62744485962335,73.88110398666187],[129.6276908457493,73.88104627022918],[129.62809824329358,73.8811856673125]]]]},"properties":{"id":"9e8dc504e19c6f79","region":"laptev","class":"unclassified_radar_target","ice_identity":"unverified","grounding":"unverified","confidence":"low","observed_at":"2026-02-20T22:02:45.304764Z","source_id":"S1C_IW_GRDH_1SDV_20260220T220230_20260220T220259_006445_00CFB8","source_level":"L1","radar_area_m2":1000.0,"radar_equivalent_diameter_m":35.68,"physical_floe_diameter_m":null,"longitude":129.627265,"latitude":73.8810992,"native_spacing_m":10,"effective_resolution_m":"20 x 22","co_contrast_max_db":10.23,"cross_contrast_max_db":8.22,"co_snr_median_db":18.69,"cross_snr_median_db":8.62,"review_status":"unreviewed","possible_confusions":"ridge, ship, fast ice, unresolved land, speckle","stream":"laptev:sentinel-1c:149:descending:vv,vh","frame_id":"S1C_IW_GRDH_1SDV_20260220T220230_20260220T220259_006445_00CFB8","source_ids":["S1C_IW_GRDH_1SDV_20260220T220230_20260220T220259_006445_00CFB8"],"multi_scene_boundary":false,"source_attribution":"majority of object pixels; all intersecting input scenes retained","source_url":"https://sentinel-s1-l1c.s3.eu-central-1.amazonaws.com/GRD/2026/2/20/IW/DV/S1C_IW_GRDH_1SDV_20260220T220230_20260220T220259_006445_00CFB8_1FC4/annotation/iw-vv.xml","repeat_track_id":"cb06aebe2b8b7d92","repeat_observations":3,"repeat_span_days":48.0,"repeat_excursion_m":39.8,"persistent_location_candidate":true,"class_name":"persistent_radar_target","interpretation":"Repeat signal near a fixed location; fast ice and association errors not excluded","confirmed_stamukha":false,"observation_ids":["cb06aebe2b8b7d92","b371ce3d7cd5bd1b","9e8dc504e19c6f79"]}},{"type":"Feature","geometry":{"type":"MultiPolygon","coordinates":[[[[129.33379501213034,73.7769218283625],[129.33330410329586,73.77703656030624],[129.3331029622635,73.77696655611173],[129.333348417197,73.77690919053242],[129.33314727754257,73.77683918637032],[129.33339273040733,73.77678182072707],[129.33319159213085,73.77671181659741],[129.3334370429269,73.77665445089028],[129.3332359060283,73.77658444679304],[129.33348135475566,73.77652708102197],[129.33388363096685,73.77666708852769],[129.33412907866162,73.77660972197155],[129.33453136245677,73.77674972816473],[129.33428591407133,73.7768070952016],[129.33408477165742,73.77673709196863],[129.33359387040716,73.77685182464877],[129.33379501213034,73.7769218283625]]]]},"properties":{"id":"4670dfd3c175c4cc","region":"laptev","class":"unclassified_radar_target","ice_identity":"unverified","grounding":"unverified","confidence":"low","observed_at":"2026-02-20T22:02:45.304764Z","source_id":"S1C_IW_GRDH_1SDV_20260220T220230_20260220T220259_006445_00CFB8","source_level":"L1","radar_area_m2":1000.0,"radar_equivalent_diameter_m":35.68,"physical_floe_diameter_m":null,"longitude":129.3336695,"latitude":73.7767639,"native_spacing_m":10,"effective_resolution_m":"20 x 22","co_contrast_max_db":8.92,"cross_contrast_max_db":7.59,"co_snr_median_db":17.06,"cross_snr_median_db":6.27,"review_status":"unreviewed","possible_confusions":"ridge, ship, fast ice, unresolved land, speckle","stream":"laptev:sentinel-1c:149:descending:vv,vh","frame_id":"S1C_IW_GRDH_1SDV_20260220T220230_20260220T220259_006445_00CFB8","source_ids":["S1C_IW_GRDH_1SDV_20260220T220230_20260220T220259_006445_00CFB8"],"multi_scene_boundary":false,"source_attribution":"majority of object pixels; all intersecting input scenes retained","source_url":"https://sentinel-s1-l1c.s3.eu-central-1.amazonaws.com/GRD/2026/2/20/IW/DV/S1C_IW_GRDH_1SDV_20260220T220230_20260220T220259_006445_00CFB8_1FC4/annotation/iw-vv.xml","repeat_track_id":"813b55456ee5094b","repeat_observations":3,"repeat_span_days":48.0,"repeat_excursion_m":39.9,"persistent_location_candidate":true,"class_name":"persistent_radar_target","interpretation":"Repeat signal near a fixed location; fast ice and association errors not excluded","confirmed_stamukha":false,"observation_ids":["813b55456ee5094b","b6f6e6d4167f5116","4670dfd3c175c4cc"]}},{"type":"Feature","geometry":{"type":"MultiPolygon","coordinates":[[[[129.05093478354414,73.83254184138605],[129.0506874982483,73.83259885697814],[129.05048688824866,73.83252857589174],[129.04999231319175,73.83264260567145],[129.04979170565358,73.8325723238974],[129.04954441589254,73.83262933808501],[129.04934381045092,73.83255905586402],[129.04909651932326,73.83261606950322],[129.04889591597822,73.8325457868353],[129.04963778307152,73.83237474571685],[129.04983838751141,73.83244502766259],[129.05033295764545,73.83233099823047],[129.05053356454673,73.83240127948856],[129.05102812848412,73.83228724834434],[129.05142934894093,73.83242780927891],[129.05118206710836,73.8324848254863],[129.050981456379,73.8324145448814],[129.05073417317965,73.8324715605404],[129.05093478354414,73.83254184138605]]]]},"properties":{"id":"f9a812ae41e59c9b","region":"laptev","class":"unclassified_radar_target","ice_identity":"unverified","grounding":"unverified","confidence":"low","observed_at":"2026-02-20T22:02:45.304764Z","source_id":"S1C_IW_GRDH_1SDV_20260220T220230_20260220T220259_006445_00CFB8","source_level":"L1","radar_area_m2":1400.0,"radar_equivalent_diameter_m":42.22,"physical_floe_diameter_m":null,"longitude":129.050166,"latitude":73.8324777,"native_spacing_m":10,"effective_resolution_m":"20 x 22","co_contrast_max_db":7.99,"cross_contrast_max_db":10.92,"co_snr_median_db":19.28,"cross_snr_median_db":11.57,"review_status":"unreviewed","possible_confusions":"ridge, ship, fast ice, unresolved land, speckle","stream":"laptev:sentinel-1c:149:descending:vv,vh","frame_id":"S1C_IW_GRDH_1SDV_20260220T220230_20260220T220259_006445_00CFB8","source_ids":["S1C_IW_GRDH_1SDV_20260220T220230_20260220T220259_006445_00CFB8"],"multi_scene_boundary":false,"source_attribution":"majority of object pixels; all intersecting input scenes retained","source_url":"https://sentinel-s1-l1c.s3.eu-central-1.amazonaws.com/GRD/2026/2/20/IW/DV/S1C_IW_GRDH_1SDV_20260220T220230_20260220T220259_006445_00CFB8_1FC4/annotation/iw-vv.xml","repeat_track_id":"5a201c1e59d00052","repeat_observations":3,"repeat_span_days":48.0,"repeat_excursion_m":7.8,"persistent_location_candidate":true,"class_name":"persistent_radar_target","interpretation":"Repeat signal near a fixed location; fast ice and association errors not excluded","confirmed_stamukha":false,"observation_ids":["5a201c1e59d00052","bec55da2c9a7312d","f9a812ae41e59c9b"]}}]}