{"type":"FeatureCollection","features":[{"type":"Feature","geometry":{"type":"Polygon","coordinates":[[[52.930946717861026,70.9689870678669],[52.09889111957015,71.32945373052766],[51.025726956891255,71.04706456884527],[51.865540560168924,70.6916635433326],[52.930946717861026,70.9689870678669]]]},"properties":{"region":"barents","name":"Баренцево море","nominal_area_km2":2500.0,"marine_area_km2":2500.0,"candidate_observations":4496,"threshold_stable_observations":1490,"isolated_stable_observations":492,"radar_target_observations":179,"optical_usable_union_km2":2159.1067,"radar_qualified_union_km2":726.7044,"full_arctic_complete":false}},{"type":"Feature","geometry":{"type":"Polygon","coordinates":[[[75.45122819418816,73.34003704380771],[75.05261697615346,73.77779124339484],[73.53075094837848,73.65525202026528],[73.9657823929335,73.22060035523964],[75.45122819418816,73.34003704380771]]]},"properties":{"region":"kara","name":"Карское море","nominal_area_km2":2500.0,"marine_area_km2":2494.8604883436547,"candidate_observations":951,"threshold_stable_observations":107,"isolated_stable_observations":10,"radar_target_observations":3519,"optical_usable_union_km2":2477.2101,"radar_qualified_union_km2":1252.3998,"full_arctic_complete":false}},{"type":"Feature","geometry":{"type":"Polygon","coordinates":[[[129.59431680689832,73.50746084133657],[130.61042452607006,73.85365842175683],[129.3780562805268,74.14443636426542],[128.37040126186767,73.79220484931203],[129.59431680689832,73.50746084133657]]]},"properties":{"region":"laptev","name":"Море Лаптевых","nominal_area_km2":2500.0,"marine_area_km2":2500.0,"candidate_observations":20,"threshold_stable_observations":20,"isolated_stable_observations":0,"radar_target_observations":1602,"optical_usable_union_km2":2399.6895,"radar_qualified_union_km2":918.4572,"full_arctic_complete":false}},{"type":"Feature","geometry":{"type":"Polygon","coordinates":[[[157.23402320159664,71.40744351441653],[158.52395588347198,71.5784199700624],[157.9999477399835,71.9999637021079],[156.6854429402136,71.82516809031023],[157.23402320159664,71.40744351441653]]]},"properties":{"region":"east_siberian","name":"Восточно-Сибирское море","nominal_area_km2":2500.0,"marine_area_km2":2500.0,"candidate_observations":4,"threshold_stable_observations":0,"isolated_stable_observations":0,"radar_target_observations":936,"optical_usable_union_km2":2500.0,"radar_qualified_union_km2":245.6241,"full_arctic_complete":false}},{"type":"Feature","geometry":{"type":"Polygon","coordinates":[[[-177.15731213412224,70.54141456765036],[-175.8357270723209,70.51362624229994],[-175.7373838441454,70.9669458185294],[-177.09004836483794,70.99536966209878],[-177.15731213412224,70.54141456765036]]]},"properties":{"region":"chukchi","name":"Чукотское море","nominal_area_km2":2500.0,"marine_area_km2":2500.0,"candidate_observations":99,"threshold_stable_observations":19,"isolated_stable_observations":2,"radar_target_observations":450,"optical_usable_union_km2":2453.6947,"radar_qualified_union_km2":515.8734,"full_arctic_complete":false}}]}